GLOBALSTAR M069         
1 31573U 07020C   26164.04935931 -.00000076  00000+0  14863-3 0  9999
2 31573  52.0036 263.8389 0002421 139.6121  30.7595 12.23471037878291
GLOBALSTAR M072         
1 31574U 07020D   26164.09773404 -.00000098  00000+0 -18933-3 0  9997
2 31574  51.9920 111.1322 0001402 320.8986  52.1397 11.91658503874490
GLOBALSTAR M066         
1 32265U 07048C   26164.00353650 -.00000142  00000+0 -40290-3 0  9994
2 32265  51.9599  69.9218 0005418  35.0855 338.9910 12.30388029859716
GLOBALSTAR M079         
1 37188U 10054A   26164.16640197 -.00000108  00000+0 -22127-4 0  9998
2 37188  52.0029 120.9094 0000620  14.6518 358.1255 12.62266110722046
GLOBALSTAR M074         
1 37189U 10054B   26164.21330770 -.00000119  00000+0 -86205-4 0  9997
2 37189  52.0002 120.0319 0000459  47.5154  58.7118 12.62268407722659
GLOBALSTAR M076         
1 37190U 10054C   26164.13990280 -.00000115  00000+0 -60853-4 0  9995
2 37190  52.0021 120.4580 0000641  37.1199 335.5505 12.62261762722364
GLOBALSTAR M077         
1 37191U 10054D   26164.27486247 -.00000049  00000+0  53670-3 0  9997
2 37191  51.9926 189.2266 0002789 165.6754 276.3440 11.67547752720683
GLOBALSTAR M075         
1 37192U 10054E   26164.33242617 -.00000094  00000+0  54071-4 0  9993
2 37192  51.9917 161.9295 0000079  24.7875  82.9826 12.62267394721454
GLOBALSTAR M073         
1 37193U 10054F   26163.93045948 -.00000118  00000+0 -77444-4 0  9994
2 37193  52.0063  77.2496 0000842  39.7440  39.1116 12.62262105723399
GLOBALSTAR M083         
1 37739U 11033A   26163.92892053 -.00000090  00000+0  76554-4 0  9993
2 37739  51.9870  25.4888 0000886  61.0794 312.2195 12.62263021692415
GLOBALSTAR M088         
1 37740U 11033B   26164.09581044 -.00000100  00000+0  19629-4 0  9991
2 37740  52.0228 291.4005 0000767 120.4899  49.8409 12.62268659687974
GLOBALSTAR M091         
1 37741U 11033C   26164.02977672 -.00000086  00000+0  10075-3 0  9999
2 37741  51.9994 254.5731 0000397 143.9768  27.1684 12.62263832688752
GLOBALSTAR M085         
1 37742U 11033D   26163.85815272 -.00000076  00000+0  15386-3 0  9996
2 37742  52.0106 206.3833 0000116 226.6310 304.3408 12.62264030689249
GLOBALSTAR M081         
1 37743U 11033E   26164.33982132 -.00000069  00000+0  19424-3 0  9990
2 37743  51.9936 207.3580 0000172 124.0247 316.4001 12.62264959689457
GLOBALSTAR M089         
1 37744U 11033F   26164.28528086 -.00000084  00000+0  10990-3 0  9995
2 37744  51.9904 161.6826 0000346  92.8681 280.4367 12.62267200690296
GLOBALSTAR M084         
1 38040U 11080A   26163.94262731 -.00000102  00000+0  10884-4 0  9995
2 38040  52.0024  30.2041 0001066  79.3575 116.0595 12.62267476668223
GLOBALSTAR M080         
1 38041U 11080B   26163.97401764 -.00000097  00000+0  39416-4 0  9995
2 38041  52.0075  31.8254 0000341  70.7300  37.4187 12.62269292668354
GLOBALSTAR M082         
1 38042U 11080C   26163.66560896 -.00000093  00000+0  61108-4 0  9993
2 38042  52.0098 348.2645 0000534  91.0322 345.1308 12.62269990669027
GLOBALSTAR M092         
1 38043U 11080D   26164.02169095 -.00000114  00000+0 -54695-4 0  9999
2 38043  52.0092  77.5769 0000625  56.7408 317.2415 12.62266926667523
GLOBALSTAR M090         
1 38044U 11080E   26164.26736057 -.00000099  00000+0  28189-4 0  9994
2 38044  52.0143 340.3875 0000807  86.6947  84.1690 12.62269018669210
GLOBALSTAR M086         
1 38045U 11080F   26164.21014719 -.00000090  00000+0  78833-4 0  9996
2 38045  51.9914 340.4978 0001663  60.8642 110.6020 12.62286665669159
GLOBALSTAR M097         
1 39072U 13005A   26163.57013591 -.00000096  00000+0  42559-4 0  9993
2 39072  52.0050 257.3914 0000380 126.0214 234.0688 12.62247214616323
GLOBALSTAR M093         
1 39073U 13005B   26163.93933925 -.00000084  00000+0  10759-3 0  9999
2 39073  52.0102 249.6128 0000240 102.9215 257.1679 12.62265829616320
GLOBALSTAR M094         
1 39074U 13005C   26164.25598260 -.00000095  00000+0  49758-4 0  9999
2 39074  51.9932 162.7684 0000304 351.3928   8.6934 12.62268612617972
GLOBALSTAR M096         
1 39075U 13005D   26164.26944966 -.00000071  00000+0  18320-3 0  9993
2 39075  52.0054 211.5271 0000086 185.4586 174.6279 12.62265561616894
GLOBALSTAR M078         
1 39076U 13005E   26163.68815395 -.00000189  00000+0 -47439-3 0  9996
2 39076  51.9889 297.3109 0000538 210.7974 149.2861 12.62258157615444
GLOBALSTAR M095         
1 39077U 13005F   26164.03165451 -.00000105  00000+0 -60731-5 0  9998
2 39077  52.0094 293.8636 0000309 126.3907 233.6988 12.62263365615349
GLOBALSTAR M087         
1 52888U 22064A   26164.04491357 -.00000111  00000+0 -42113-4 0  9996
2 52888  52.0003  75.0631 0000682  29.1879 330.9026 12.62268976190616
